INTELSAT 10 (IS-10)     
1 26766U 01019A   26035.04021726 -.00000036  00000+0  00000+0 0  9994
2 26766   8.7570  60.6079 0008434 252.6678 104.5252  0.99072725 44254
INTELSAT 902 (IS-902)   
1 26900U 01039A   26036.47477105 -.00000287  00000+0  00000+0 0  9998
2 26900   5.7843  73.4050 0004590 244.8187 298.1996  1.00272276 89375
INTELSAT 904 (IS-904)   
1 27380U 02007A   26036.47841106 -.00000229  00000+0  00000+0 0  9999
2 27380   6.5912  70.7790 0004737 291.0594 274.4827  1.00272684 50443
DIRECTV 5 (TEMPO 1)     
1 27426U 02023A   26036.24041848 -.00000061  00000+0  00000+0 0  9992
2 27426   4.5412  76.9807 0003489 248.2820 146.5346  1.00272126 86808
INTELSAT 905 (IS-905)   
1 27438U 02027A   26034.67448415  .00000085  00000+0  00000+0 0  9990
2 27438   6.4184  71.4221 0003103 254.4543 273.5766  1.00273768 50027
GALAXY 3C (G-3C)        
1 27445U 02030A   26036.48784153 -.00000155  00000+0  00000+0 0  9994
2 27445   3.3987  79.8429 0000724  50.7640  85.7863  1.00271889 45178
INTELSAT 906 (IS-906)   
1 27513U 02041A   26036.21216963  .00000009  00000+0  00000+0 0  9999
2 27513   5.4670  74.5635 0004484 223.2196 338.1036  1.00272295 85709
GALAXY 13 (HORIZONS-1)  
1 27954U 03044A   26036.45501093  .00000130  00000+0  00000+0 0  9994
2 27954   1.0773  85.7426 0002113 232.5667 191.0601  1.00272706 45256
INTELSAT 10-02          
1 28358U 04022A   26036.41306405 -.00000014  00000+0  00000+0 0  9998
2 28358   0.0186  97.1190 0000772 263.6608 282.4644  1.00268065 79236
DIRECTV 8               
1 28659U 05019A   26036.38983723 -.00000001  00000+0  00000+0 0  9995
2 28659   0.0142  93.2940 0003321 238.7276 184.7819  1.00272407 75755
GALAXY 28 (G-28)        
1 28702U 05022A   26036.40673735 -.00000198  00000+0  00000+0 0  9997
2 28702   2.9589  80.6152 0001993 229.9861 297.6152  1.00584880 50657
GALAXY 16 (G-16)        
1 29236U 06023A   26036.46515098 -.00000129  00000+0  00000+0 0  9999
2 29236   0.0325 195.8245 0002950 130.0218 238.1888  1.00271052 71654
DIRECTV 9S              
1 29494U 06043A   26036.46471765 -.00000116  00000+0  00000+0 0  9995
2 29494   2.0813  82.5722 0003142 241.6424 237.4551  1.00272398 50063
GALAXY 17 (G-17)        
1 31307U 07016B   26036.46792433 -.00000209  00000+0  00000+0 0  9993
2 31307   2.6384  81.6146 0004372 216.2062 281.2289  1.00271948 68480
DIRECTV 10              
1 31862U 07032A   26034.22368691  .00000059  00000+0  00000+0 0  9996
2 31862   0.0549 113.2732 0002133 256.4898  87.9715  0.99432575 44256
INTELSAT 11 (IS-11)     
1 32253U 07044B   26036.33922365 -.00000224  00000+0  00000+0 0  9997
2 32253   3.2223  80.3240 0006826 192.6596 330.2012  0.99053082 67141
HORIZONS-2              
1 32388U 07063B   26036.47009102 -.00000256  00000+0  00000+0 0  9992
2 32388   2.2631  82.3191 0003479 227.3569 281.3483  1.00272892 66496
DIRECTV 11              
1 32729U 08013A   26036.46506433 -.00000128  00000+0  00000+0 0  9993
2 32729   0.0277 238.2725 0000432  76.5071 249.0309  1.00274015 44279
GALAXY 18 (G-18)        
1 32951U 08024A   26036.38905723  .00000000  00000+0  00000+0 0  9996
2 32951   0.0195 103.8093 0003193 231.6634 177.1117  1.00270903 44535
INTELSAT 25 (IS-25)     
1 33153U 08034A   26036.47849773 -.00000227  00000+0  00000+0 0  9996
2 33153   2.3685  81.9927 0004466 227.0371 327.3429  1.00271335 64371
GALAXY 19 (G-19)        
1 33376U 08045A   26036.46549765 -.00000141  00000+0  00000+0 0  9997
2 33376   0.0529 265.7497 0002915  54.4740 245.9448  1.00271297 63588
FM-5                    
1 35493U 09034A   26036.46766433 -.00000202  00000+0  00000+0 0  9999
2 35493   0.0030 139.4327 0001009  52.6976  25.6592  1.00272323 45326
INTELSAT 14 (IS-14)     
1 36097U 09064A   26036.47581104 -.00000276  00000+0  00000+0 0  9995
2 36097   0.0153  78.6579 0002453 233.2706 309.9459  1.00268508 59288
INTELSAT 15 (IS-15)     
1 36106U 09067A   26036.50163786  .00000000  00000+0  00000+0 0  9999
2 36106   0.0143  99.8390 0001951 238.2508  63.2981  1.00277027 39904
DIRECTV 12              
1 36131U 09075A   26036.46437098 -.00000106  00000+0  00000+0 0  9999
2 36131   0.0034 131.2286 0000392 226.0337 202.7914  1.00271954 45231
INTELSAT 16 (IS-16)     
1 36397U 10006A   26036.46965767  .00000000  00000+0  00000+0 0  9990
2 36397   0.0220  86.9589 0002106 235.2426 266.2968  1.00270602 58338
XM-5                    
1 37185U 10053A   26036.46194431 -.00000026  00000+0  00000+0 0  9999
2 37185   0.0612 270.0271 0002753 253.8919  22.7576  1.00275358 56166
INTELSAT 17 (IS-17)     
1 37238U 10065B   26036.49964601 -.00000003  00000+0  00000+0 0  9993
2 37238   0.0166 171.4493 0002493 152.5933  57.4562  1.00270899 51925
INTELSAT 28 (IS-28)     
1 37392U 11016A   26036.40708402 -.00000228  00000+0  00000+0 0  9996
2 37392   1.4660  84.3806 0004126 228.6355 297.3479  1.00271369 51967
INTELSAT 18 (IS-18)     
1 37834U 11056A   26036.44911756  .00000051  00000+0  00000+0 0  9996
2 37834   0.0302 271.6328 0001889  49.2837 156.3305  1.00273453 52498
INTELSAT 22 (IS-22)     
1 38098U 12011A   26036.50009154 -.00000060  00000+0  00000+0 0  9999
2 38098   0.0090  35.5036 0001584 291.2241  61.0273  1.00271334  5869
INTELSAT 19 (IS-19)     
1 38356U 12030A   26036.44634423 -.00000059  00000+0  00000+0 0  9991
2 38356   0.0189  87.7847 0003307 240.1841 134.2834  1.00271606 49134
INTELSAT 20 (IS-20)     
1 38740U 12043A   26035.86944427 -.00000027  00000+0  00000+0 0  9990
2 38740   0.0204 103.1524 0002093  42.4853  10.8571  1.00263910 49429
INTELSAT 21 (IS-21)     
1 38749U 12045A   26036.47321104 -.00000287  00000+0  00000+0 0  9998
2 38749   0.0291 269.5806 0001886  47.2553 291.1183  1.00272806 49206
INTELSAT 23 (IS-23)     
1 38867U 12057A   26036.40292398 -.00000287  00000+0  00000+0 0  9997
2 38867   0.0625 262.9876 0002024  36.3313 288.2781  1.00269191 48630
FM-6                    
1 39360U 13058A   26036.24770315 -.00000020  00000+0  00000+0 0  9995
2 39360   0.0293 100.4347 0002649  82.2370 285.6857  1.00273484 44759
INTELSAT 30 (IS-30)     
1 40271U 14062A   26035.96664463 -.00000154  00000+0  00000+0 0  9996
2 40271   0.0166  67.4657 0001245  28.3543 292.2037  1.00271119  5463
DIRECTV 14              
1 40333U 14078B   26036.46506433  .00000000  00000+0  00000+0 0  9999
2 40333   0.0219  94.8141 0000370  51.2148  57.7905  1.00268420 40724
DIRECTV 15              
1 40663U 15026A   26036.46437098 -.00000104  00000+0  00000+0 0  9995
2 40663   0.0180  91.5096 0000276  85.6772  22.6769  1.00269273 39149
SKY MEXICO-1            
1 40664U 15026B   26036.39781062 -.00000237  00000+0  00000+0 0  9998
2 40664   0.0173  85.3392 0002124 242.0771 232.5398  1.00270143 39131
INTELSAT 34 (IS-34)     
1 40874U 15039A   26036.47373104  .00000000  00000+0  00000+0 0  9995
2 40874   0.0123  87.7025 0000270  63.7450  99.2306  1.00267930 38305
INTELSAT 31 (IS-31)     
1 41581U 16035A   26035.31641947 -.00000156  00000+0  00000+0 0  9996
2 41581   0.0393 264.5915 0001972 316.5029 292.1873  1.00269768 35350
INTELSAT 36 (IS-36)     
1 41747U 16053A   26035.92773106 -.00000028  00000+0  00000+0 0  9998
2 41747   0.0119  57.9390 0001291 261.9266 217.6608  1.00271116 34628
INTELSAT 32E (IS-32E)   
1 41945U 17007B   26036.47615772 -.00000271  00000+0  00000+0 0  9993
2 41945   0.0161  90.7867 0000706 299.4691 233.5746  1.00275489 32903
INTELSAT 35E (IS-35E)   
1 42818U 17041A   26035.97860469 -.00000242  00000+0  00000+0 0  9998
2 42818   0.0141  90.6772 0002277 231.8531 130.3681  1.00270710 31489
INTELSAT 37E (IS-37E)   
1 42950U 17059A   26036.40968404 -.00000144  00000+0  00000+0 0  9992
2 42950   0.0156  90.1655 0002564 213.0576 321.7776  1.00270666 30746
AZERSPACE 2 (IS-38)     
1 43632U 18074A   26036.49366449  .00000134  00000+0  00000+0 0  9996
2 43632   0.0191  91.6282 0001442 233.1058  33.7009  1.00271888 27121
HORIZONS-3E             
1 43633U 18074B   26036.16155602 -.00000034  00000+0  00000+0 0  9998
2 43633   0.0468 254.7183 0000574  64.2458  43.4728  1.00271934 27019
AT&T T-16               
1 44333U 19034A   26036.25073651 -.00000118  00000+0  00000+0 0  9999
2 44333   0.0234  90.1569 0000718  70.3563 324.2522  1.00271976 24311
INTELSAT 39 (IS-39)     
1 44476U 19049B   26036.42571745  .00000031  00000+0  00000+0 0  9992
2 44476   0.0188  89.2135 0000920  54.1889 207.3440  1.00271050 23807
GALAXY 30 (G-30)        
1 46114U 20056C   26036.38862390  .00000000  00000+0  00000+0 0  9993
2 46114   0.0185 102.3816 0001996 227.0999 180.9611  1.00269530 19974
GALAXY 33 (G-33)        
1 54026U 22128A   26036.10175571  .00000000  00000+0  00000+0 0  9994
2 54026   0.0146  89.7441 0001886 232.4960  76.6589  1.00269802 12419
GALAXY 34 (G-34)        
1 54027U 22128B   26035.95988459  .00000000  00000+0  00000+0 0  9994
2 54027   0.0263 108.0441 0004491 289.3485 314.3057  1.00260903 12586
GALAXY 31 (G-31)        
1 54243U 22153A   26036.38940390  .00000011  00000+0  00000+0 0  9994
2 54243   0.0145 167.7573 0001488 156.8442 190.0976  1.00271351  5813
GALAXY 32 (G-32)        
1 54244U 22153B   26036.25272985 -.00000177  00000+0  00000+0 0  9993
2 54244   0.0169  69.6803 0002821 268.1156 157.5636  1.00272584 11825
GALAXY 35 (G-35)        
1 54741U 22170A   26036.48805397 -.00000164  00000+0  00000+0 0  9994
2 54741   0.0193 193.2514 0002056 125.2729 259.6821  1.00271063 11579
GALAXY 36 (G-36)        
1 54742U 22170B   26036.46705767 -.00000187  00000+0  00000+0 0  9998
2 54742   0.0182 121.8814 0001412 259.2917 193.5526  1.00272393 11452
GALAXY 37 (G-37)        
1 57493U 23112A   26036.10296905  .00000045  00000+0  00000+0 0  9993
2 57493   0.0138  83.6275 0002057 238.1004  83.5684  1.00272500  9218
